$$SOE
2460147.500000000, A.D. 2023-Jul-22 00:00:00.0000, 3.878058997055643E+08, -4.230934094020845E+08, -2.914231723856315E+07,
2460154.500000000, A.D. 2023-Jul-29 00:00:00.0000, 3.936566592144135E+08, -4.158531047506326E+08, -2.964180528681988E+07,
2460161.500000000, A.D. 2023-Aug-05 00:00:00.0000, 3.994060003283669E+08, -4.085056862062144E+08, -3.013365717204282E+07,
2460168.500000000, A.D. 2023-Aug-12 00:00:00.0000, 4.050517471907937E+08, -4.010523386902831E+08, -3.061769377654803E+07,
2460175.500000000, A.D. 2023-Aug-19 00:00:00.0000, 4.105917259454566E+08, -3.934942953984542E+08, -3.109373593898094E+07,
2460182.500000000, A.D. 2023-Aug-26 00:00:00.0000, 4.160237657725582E+08, -3.858328383850784E+08, -3.156160452823073E+07,
2460189.500000000, A.D. 2023-Sep-02 00:00:00.0000, 4.213456999404638E+08, -3.780692992020324E+08, -3.202112052512278E+07,
2460196.500000000, A.D. 2023-Sep-09 00:00:00.0000, 4.265553669106519E+08, -3.702050596309500E+08, -3.247210511865228E+07,
2460203.500000000, A.D. 2023-Sep-16 00:00:00.0000, 4.316506116652086E+08, -3.622415525651176E+08, -3.291437983698413E+07,
2460210.500000000, A.D. 2023-Sep-23 00:00:00.0000, 4.366292876741985E+08, -3.541802627526118E+08, -3.334776672799191E+07,
2460217.500000000, A.D. 2023-Sep-30 00:00:00.0000, 4.414892591643364E+08, -3.460227262087177E+08, -3.377208846084955E+07,
2460224.500000000, A.D. 2023-Oct-07 00:00:00.0000, 4.462284013356379E+08, -3.377705288395805E+08, -3.418716817706750E+07,
2460231.500000000, A.D. 2023-Oct-14 00:00:00.0000, 4.508445995652164E+08, -3.294253075885930E+08, -3.459282945697255E+07,
2460238.500000000, A.D. 2023-Oct-21 00:00:00.0000, 4.553357508260294E+08, -3.209887525001080E+08, -3.498889656658828E+07,
2460245.500000000, A.D. 2023-Oct-28 00:00:00.0000, 4.596997658960916E+08, -3.124626074378317E+08, -3.537519466932176E+07,
2460252.500000000, A.D. 2023-Nov-04 00:00:00.0000, 4.639345711080071E+08, -3.038486702260703E+08, -3.575154995048469E+07,
2460259.500000000, A.D. 2023-Nov-11 00:00:00.0000, 4.680381098160151E+08, -2.951487928114179E+08, -3.611778971967219E+07,
2460266.500000000, A.D. 2023-Nov-18 00:00:00.0000, 4.720083437995457E+08, -2.863648815068004E+08, -3.647374251609805E+07,
2460273.500000000, A.D. 2023-Nov-25 00:00:00.0000, 4.758432546755115E+08, -2.774988972929069E+08, -3.681923822145765E+07,
2460280.500000000, A.D. 2023-Dec-02 00:00:00.0000, 4.795408453467553E+08, -2.685528561858184E+08, -3.715410818359278E+07,
2460287.500000000, A.D. 2023-Dec-09 00:00:00.0000, 4.830991415633948E+08, -2.595288297272898E+08, -3.747818536273994E+07,
2460294.500000000, A.D. 2023-Dec-16 00:00:00.0000, 4.865161938832395E+08, -2.504289455823707E+08, -3.779130452558883E+07,
2460301.500000000, A.D. 2023-Dec-23 00:00:00.0000, 4.897900803786008E+08, -2.412553875538979E+08, -3.809330246287110E+07,
2460308.500000000, A.D. 2023-Dec-30 00:00:00.0000, 4.929189087488336E+08, -2.320103939620810E+08, -3.838401802182895E+07,
2460315.500000000, A.D. 2024-Jan-06 00:00:00.0000, 4.959008160652501E+08, -2.226962567481820E+08, -3.866329198402841E+07,
2460322.500000000, A.D. 2024-Jan-13 00:00:00.0000, 4.987339693188557E+08, -2.133153231068751E+08, -3.893096722730957E+07,
2460329.500000000, A.D. 2024-Jan-20 00:00:00.0000, 5.014165679921962E+08, -2.038699965596362E+08, -3.918688903211088E+07,
2460336.500000000, A.D. 2024-Jan-27 00:00:00.0000, 5.039468466249660E+08, -1.943627368142462E+08, -3.943090529288774E+07,
2460343.500000000, A.D. 2024-Feb-03 00:00:00.0000, 5.063230769432600E+08, -1.847960593566552E+08, -3.966286667294816E+07,
2460350.500000000, A.D. 2024-Feb-10 00:00:00.0000, 5.085435698277702E+08, -1.751725350639835E+08, -3.988262675199283E+07,
2460357.500000000, A.D. 2024-Feb-17 00:00:00.0000, 5.106066772573794E+08, -1.654947898283989E+08, -4.009004217843996E+07,
2460364.500000000, A.D. 2024-Feb-24 00:00:00.0000, 5.125107942617250E+08, -1.557655041748224E+08, -4.028497282858873E+07,
2460371.500000000, A.D. 2024-Mar-02 00:00:00.0000, 5.142543609095576E+08, -1.459874129028871E+08, -4.046728197789527E+07,
2460378.500000000, A.D. 2024-Mar-09 00:00:00.0000, 5.158358644687939E+08, -1.361633048140661E+08, -4.063683650211625E+07,
2460385.500000000, A.D. 2024-Mar-16 00:00:00.0000, 5.172538421301455E+08, -1.262960223246217E+08, -4.079350712827284E+07,
2460392.500000000, A.D. 2024-Mar-23 00:00:00.0000, 5.185068841875415E+08, -1.163884598529315E+08, -4.093716863505973E+07,
2460399.500000000, A.D. 2024-Mar-30 00:00:00.0000, 5.195936354319680E+08, -1.064435610063186E+08, -4.106769979911864E+07,
2460406.500000000, A.D. 2024-Apr-06 00:00:00.0000, 5.205127950116765E+08, -9.646431793458201E+07, -4.118498338568532E+07,
2460413.500000000, A.D. 2024-Apr-13 00:00:00.0000, 5.212631183046811E+08, -8.645377201286206E+07, -4.128890644063120E+07,
2460420.500000000, A.D. 2024-Apr-20 00:00:00.0000, 5.218434198460906E+08, -7.641501317536570E+07, -4.137936057736605E+07,
2460427.500000000, A.D. 2024-Apr-27 00:00:00.0000, 5.222525757886387E+08, -6.635117845952173E+07, -4.145624216488000E+07,
2460434.500000000, A.D. 2024-May-04 00:00:00.0000, 5.224895259800468E+08, -5.626545046219334E+07, -4.151945248203354E+07,
2460441.500000000, A.D. 2024-May-11 00:00:00.0000, 5.225532758917151E+08, -4.616105580814344E+07, -4.156889786785796E+07,
2460448.500000000, A.D. 2024-May-18 00:00:00.0000, 5.224428984772294E+08, -3.604126360801638E+07, -4.160448987320553E+07,
2460455.500000000, A.D. 2024-May-25 00:00:00.0000, 5.221575359818950E+08, -2.590938391249039E+07, -4.162614541615947E+07,
2460462.500000000, A.D. 2024-Jun-01 00:00:00.0000, 5.216964017592425E+08, -1.576876622016748E+07, -4.163378695088860E+07,
2460469.500000000, A.D. 2024-Jun-08 00:00:00.0000, 5.210587823361942E+08, -5.622798062748626E+06, -4.162734267384475E+07,
2460476.500000000, A.D. 2024-Jun-15 00:00:00.0000, 5.202440401207207E+08, 4.525096877069311E+06, -4.160674675870434E+07,
2460483.500000000, A.D. 2024-Jun-22 00:00:00.0000, 5.192516157412203E+08, 1.467146229029626E+07, -4.157193943103424E+07,
2460490.500000000, A.D. 2024-Jun-29 00:00:00.0000, 5.180810278921914E+08, 2.481281258780371E+07, -4.152286683625365E+07,
2460497.500000000, A.D. 2024-Jul-06 00:00:00.0000, 5.167318733268604E+08, 3.494563359488139E+07, -4.145948114494023E+07,
2460504.500000000, A.D. 2024-Jul-13 00:00:00.0000, 5.152038289399113E+08, 4.506638341651499E+07, -4.138174084287152E+07,
2460511.500000000, A.D. 2024-Jul-20 00:00:00.0000, 5.134966539491075E+08, 5.517149462073610E+07, -4.128961092922153E+07,
2460518.500000000, A.D. 2024-Jul-27 00:00:00.0000, 5.116101915150569E+08, 6.525737677876391E+07, -4.118306304073258E+07,
2460525.500000000, A.D. 2024-Aug-03 00:00:00.0000, 5.095443700673962E+08, 7.532041898470181E+07, -4.106207555722126E+07,
2460532.500000000, A.D. 2024-Aug-10 00:00:00.0000, 5.072992044984907E+08, 8.535699234780002E+07, -4.092663370375079E+07,
2460539.500000000, A.D. 2024-Aug-17 00:00:00.0000, 5.048747972674155E+08, 9.536345247628734E+07, -4.077672965185733E+07,
2460546.500000000, A.D. 2024-Aug-24 00:00:00.0000, 5.022713394377005E+08, 1.053361419275606E+08, -4.061236262408812E+07,
2460553.500000000, A.D. 2024-Aug-31 00:00:00.0000, 4.994891117603807E+08, 1.152713925598754E+08, -4.043353901741879E+07,
2460560.500000000, A.D. 2024-Sep-07 00:00:00.0000, 4.965284861637149E+08, 1.251655279078381E+08, -4.024027256871041E+07,
2460567.500000000, A.D. 2024-Sep-14 00:00:00.0000, 4.933899277298972E+08, 1.350148665731148E+08, -4.003258448848823E+07,
2460574.500000000, A.D. 2024-Sep-21 00:00:00.0000, 4.900739951253424E+08, 1.448157270392556E+08, -3.981050334296963E+07,
2460581.500000000, A.D. 2024-Sep-28 00:00:00.0000, 4.865813389948785E+08, 1.545644306789546E+08, -3.957406490332595E+07,
2460588.500000000, A.D. 2024-Oct-05 00:00:00.0000, 4.829127019868691E+08, 1.642573029493961E+08, -3.932331229859127E+07,
2460595.500000000, A.D. 2024-Oct-12 00:00:00.0000, 4.790689200442366E+08, 1.738906757498353E+08, -3.905829619528495E+07,
2460602.500000000, A.D. 2024-Oct-19 00:00:00.0000, 4.750509232067910E+08, 1.834608906653480E+08, -3.877907486494111E+07,
2460609.500000000, A.D. 2024-Oct-26 00:00:00.0000, 4.708597358897740E+08, 1.929643022900529E+08, -3.848571420182850E+07,
2460616.500000000, A.D. 2024-Nov-02 00:00:00.0000, 4.664964768937370E+08, 2.023972814759979E+08, -3.817828772640293E+07,
2460623.500000000, A.D. 2024-Nov-09 00:00:00.0000, 4.619623592406598E+08, 2.117562185229556E+08, -3.785687658149308E+07,
2460630.500000000, A.D. 2024-Nov-16 00:00:00.0000, 4.572586898611723E+08, 2.210375263038698E+08, -3.752156952343534E+07,
2460637.500000000, A.D. 2024-Nov-23 00:00:00.0000, 4.523868691794701E+08, 2.302376432703282E+08, -3.717246291644780E+07,
2460644.500000000, A.D. 2024-Nov-30 00:00:00.0000, 4.473483908046024E+08, 2.393530362892685E+08, -3.680966075280078E+07,
2460651.500000000, A.D. 2024-Dec-07 00:00:00.0000, 4.421448417481259E+08, 2.483802037244066E+08, -3.643327470286132E+07,
2460658.500000000, A.D. 2024-Dec-14 00:00:00.0000, 4.367779024788811E+08, 2.573156799783595E+08, -3.604342403161401E+07,
2460665.500000000, A.D. 2024-Dec-21 00:00:00.0000, 4.312493444954488E+08, 2.661560402479222E+08, -3.564023526999758E+07,
2460672.500000000, A.D. 2024-Dec-28 00:00:00.0000, 4.255610273902111E+08, 2.748979025190061E+08, -3.522384206434876E+07,
2460679.500000000, A.D. 2025-Jan-04 00:00:00.0000, 4.197148980032589E+08, 2.835379291698170E+08, -3.479438524788658E+07,
2460686.500000000, A.D. 2025-Jan-11 00:00:00.0000, 4.137129898449112E+08, 2.920728298353375E+08, -3.435201283124402E+07,
2460693.500000000, A.D. 2025-Jan-18 00:00:00.0000, 4.075574218715963E+08, 3.004993646088573E+08, -3.389687990284277E+07,
2460700.500000000, A.D. 2025-Jan-25 00:00:00.0000, 4.012503968618866E+08, 3.088143471005871E+08, -3.342914850021172E+07,
2460707.500000000, A.D. 2025-Feb-01 00:00:00.0000, 3.947941995861669E+08, 3.170146473173366E+08, -3.294898747213906E+07,
2460714.500000000, A.D. 2025-Feb-08 00:00:00.0000, 3.881911948324050E+08, 3.250971943766862E+08, -3.245657233547147E+07,
$$EOE